{"type":"FeatureCollection","features":[{"type":"Feature","geometry":{"type":"Polygon","coordinates":[[[-62.955792,-40.841747],[-62.961333,-40.846141],[-62.959664,-40.847525],[-62.953883,-40.843503],[-62.955792,-40.841747]]]},"properties":{"LV060":"-62,95579177925414, -40,841746840475054","fill":"rgba(255, 0, 0, 1)"}},{"type":"Feature","geometry":{"type":"Polygon","coordinates":[[[-62.957132,-40.840589],[-62.958567,-40.841617],[-62.957292,-40.84261],[-62.955945,-40.841674],[-62.957132,-40.840589]]]},"properties":{"LV059":"-62,957152541951245, -40,840524768572394","fill":"rgba(255, 0, 0, 1)"}},{"type":"Feature","geometry":{"type":"Polygon","coordinates":[[[-62.962312,-40.838371],[-62.962645,-40.838611],[-62.961879,-40.839219],[-62.961538,-40.838966],[-62.962312,-40.838371]]]},"properties":{"LV057":"-62,96226664927795, -40,83843263562358","fill":"rgba(248, 0, 0, 1)"}},{"type":"Feature","geometry":{"type":"Polygon","coordinates":[[[-62.961675,-40.836971],[-62.962108,-40.837287],[-62.961705,-40.837606],[-62.961273,-40.837274],[-62.961675,-40.836971]]]},"properties":{"LV052":"-62,961696149190715, -40,83698820189553","fill":"rgba(255, 0, 0, 1)"}},{"type":"Feature","geometry":{"type":"Polygon","coordinates":[[[-62.963607,-40.836479],[-62.963808,-40.83663],[-62.963133,-40.837149],[-62.962933,-40.837007],[-62.96361,-40.836479],[-62.963607,-40.836479]]]},"properties":{"LV046":"-62,96361, -40,8364792","fill":"rgba(255, 0, 0, 1)"}},{"type":"Feature","geometry":{"type":"Polygon","coordinates":[[[-62.964108,-40.835033],[-62.965849,-40.83633],[-62.964832,-40.837095],[-62.963142,-40.835822],[-62.964108,-40.835033]]]},"properties":{"LV015":"-62,96410792566972, -40,835032804568215","fill":"rgba(255, 0, 0, 1)"}},{"type":"Feature","geometry":{"type":"Polygon","coordinates":[[[-62.965721,-40.833846],[-62.966567,-40.834479],[-62.965822,-40.835028],[-62.964987,-40.834406],[-62.965721,-40.833846]]]},"properties":{"LV013":"-62,965721338769384, -40,833845853085215","fill":"rgba(255, 0, 0, 1)"}},{"type":"Feature","geometry":{"type":"Polygon","coordinates":[[[-62.966182,-40.831224],[-62.966626,-40.831556],[-62.965868,-40.832261],[-62.96535,-40.831878],[-62.966182,-40.831224]]]},"properties":{"LV005":"-62,96618214033526, -40,83122412804987","fill":"rgba(250, 0, 71, 1)"}},{"type":"Feature","geometry":{"type":"Polygon","coordinates":[[[-62.966735,-40.830803],[-62.967113,-40.831088],[-62.966621,-40.831542],[-62.966194,-40.831226],[-62.966735,-40.830803]]]},"properties":{"LV004":"-62,96673469101526, -40,83080322213676","fill":"rgba(255, 0, 72, 1)"}},{"type":"Feature","geometry":{"type":"Polygon","coordinates":[[[-62.967091,-40.830586],[-62.967384,-40.830823],[-62.967114,-40.831073],[-62.966754,-40.830802],[-62.96688,-40.830698],[-62.967091,-40.830586]]]},"properties":{"LV003":"-62,96709081589826, -40,83058616323983","fill":"rgba(244, 0, 69, 1)"}},{"type":"Feature","geometry":{"type":"Polygon","coordinates":[[[-62.967635,-40.83028],[-62.967782,-40.830416],[-62.967389,-40.830821],[-62.967101,-40.830581],[-62.967635,-40.83028]]]},"properties":{"LV002":"-62,96763506854117, -40,83028040904606","fill":"rgba(255, 0, 72, 1)"}},{"type":"Feature","geometry":{"type":"Polygon","coordinates":[[[-62.968174,-40.830069],[-62.967787,-40.830412],[-62.967642,-40.83028],[-62.968094,-40.830008],[-62.968174,-40.830069]]]},"properties":{"LV001":"-62,96809407129267, -40,83000800433639","fill":"rgba(255, 0, 34, 1)"}},{"type":"Feature","geometry":{"type":"Polygon","coordinates":[[[-62.970316,-40.830161],[-62.971101,-40.830764],[-62.970525,-40.831188],[-62.969663,-40.83054],[-62.969781,-40.830459],[-62.969841,-40.830504],[-62.970316,-40.830161]]]},"properties":{"LV008":"-62,97031598249197, -40,83016096865783","fill":"rgba(255, 0, 0, 1)"}},{"type":"Feature","geometry":{"type":"Polygon","coordinates":[[[-62.969608,-40.830491],[-62.970975,-40.83153],[-62.970322,-40.832017],[-62.968966,-40.830981],[-62.969608,-40.830491]]]},"properties":{"LV009":"-62,969608194918976, -40,83049068953237","fill":"rgba(255, 0, 0, 1)"}},{"type":"Feature","geometry":{"type":"Polygon","coordinates":[[[-62.968884,-40.83102],[-62.971764,-40.833273],[-62.970109,-40.834486],[-62.967179,-40.832331],[-62.968884,-40.83102]]]},"properties":{"LV010":"-62,968884179473505, -40,831019670751935","fill":"rgba(255, 0, 0, 1)"}},{"type":"Feature","geometry":{"type":"Polygon","coordinates":[[[-62.967161,-40.832303],[-62.970024,-40.834525],[-62.96919,-40.835183],[-62.966333,-40.832975],[-62.967161,-40.832303]]]},"properties":{"LV011":"-62,96711252926097, -40,83238107966638","fill":"rgba(255, 0, 0, 1)"}},{"type":"Feature","geometry":{"type":"Polygon","coordinates":[[[-62.965321,-40.831881],[-62.965863,-40.832281],[-62.965627,-40.832482],[-62.965063,-40.832064],[-62.965321,-40.831881]]]},"properties":{"LV006":"-62,96532061553536, -40,83188093492791","fill":"rgba(255, 0, 0, 1)"}},{"type":"Feature","geometry":{"type":"Polygon","coordinates":[[[-62.966294,-40.832957],[-62.969169,-40.835167],[-62.96839,-40.835735],[-62.965531,-40.833549],[-62.966294,-40.832957]]]},"properties":{"LV012":"-62,966294, -40,832957","fill":"rgba(255, 0, 0, 1)"}},{"type":"Feature","geometry":{"type":"Polygon","coordinates":[[[-62.966582,-40.834484],[-62.967406,-40.835136],[-62.966704,-40.835699],[-62.96583,-40.835039],[-62.966582,-40.834484]]]},"properties":{"LV017":"-62,966582, -40,834484","fill":"rgba(255, 0, 0, 1)"}},{"type":"Feature","geometry":{"type":"Polygon","coordinates":[[[-62.964943,-40.834418],[-62.965819,-40.835057],[-62.964988,-40.835659],[-62.964122,-40.835042],[-62.964943,-40.834418]]]},"properties":{"LV014":"rgba(244, 0, 0, 1)","fill":"rgba(255, 0, 0, 1)"}},{"type":"Feature","geometry":{"type":"Polygon","coordinates":[[[-62.96584,-40.835066],[-62.966683,-40.835696],[-62.965852,-40.836318],[-62.964995,-40.835684],[-62.96584,-40.835066]]]},"properties":{"LV016":"-62,96584, -40,835066","fill":"rgba(255, 0, 0, 1)"}},{"type":"Feature","geometry":{"type":"Polygon","coordinates":[[[-62.967501,-40.835185],[-62.968275,-40.835781],[-62.966659,-40.836966],[-62.96594,-40.836414],[-62.967501,-40.835185]]]},"properties":{"LV019":"-62,967501, -40,835185","fill":"rgba(255, 0, 4, 1)"}},{"type":"Feature","geometry":{"type":"Polygon","coordinates":[[[-62.965912,-40.836442],[-62.966649,-40.836985],[-62.965648,-40.837751],[-62.964915,-40.837221],[-62.965912,-40.836442]]]},"properties":{"LV018":"-62,965912, -40,836442","fill":"rgba(255, 0, 0, 1)"}},{"type":"Feature","geometry":{"type":"Polygon","coordinates":[[[-62.962935,-40.837306],[-62.963814,-40.836635],[-62.964223,-40.836961],[-62.964048,-40.837085],[-62.963364,-40.837619],[-62.962935,-40.837306]]]},"properties":{"LV045":"-62,963814, ","fill":"rgba(251, 6, 6, 1)"}},{"type":"Feature","geometry":{"type":"Polygon","coordinates":[[[-62.96339,-40.83632],[-62.963597,-40.836479],[-62.962936,-40.836995],[-62.962732,-40.836844],[-62.96339,-40.83632]]]},"properties":{"LV047":"-62,963389, -40,836321","fill":"rgba(248, 0, 0, 1)"}},{"type":"Feature","geometry":{"type":"Polygon","coordinates":[[[-62.962941,-40.835984],[-62.963382,-40.836317],[-62.963033,-40.836595],[-62.96272,-40.836834],[-62.962269,-40.836507],[-62.962941,-40.835984]]]},"properties":{"LV048":"rgba(255, 0, 0, 1)","fill":"rgba(248, 0, 0, 1)"}},{"type":"Feature","geometry":{"type":"Polygon","coordinates":[[[-62.962259,-40.836513],[-62.963141,-40.837156],[-62.962871,-40.837373],[-62.962004,-40.83671],[-62.962259,-40.836513]]]},"properties":{"LV049":"-62,962259, -40,836513","fill":"rgba(255, 0, 0, 1)"}},{"type":"Feature","geometry":{"type":"Polygon","coordinates":[[[-62.961993,-40.836718],[-62.962864,-40.837376],[-62.962557,-40.837614],[-62.961675,-40.836968],[-62.961993,-40.836718]]]},"properties":{"LV050":"-62,961993, -40,836718","fill":"rgba(255, 0, 0, 1)"}},{"type":"Feature","geometry":{"type":"Polygon","coordinates":[[[-62.962114,-40.837297],[-62.962534,-40.837619],[-62.962119,-40.837934],[-62.961711,-40.837612],[-62.962114,-40.837297]]]},"properties":{"LV051":"-62,962114, -40,837303","fill":"rgba(250, 0, 0, 1)"}},{"type":"Feature","geometry":{"type":"Polygon","coordinates":[[[-62.962946,-40.837324],[-62.963361,-40.837622],[-62.962526,-40.83824],[-62.962127,-40.837945],[-62.962946,-40.837324]]]},"properties":{"LV044":"-62,962946, -40,837324","fill":"rgba(255, 0, 0, 1)","LV045":"-62,963814, -40,836635"}},{"type":"Feature","geometry":{"type":"Polygon","coordinates":[[[-62.963375,-40.837632],[-62.963741,-40.837922],[-62.962948,-40.838545],[-62.962532,-40.838243],[-62.963375,-40.837632]]]},"properties":{"LV043":"-62,963375, -40,837632","fill":"rgba(250, 0, 17, 1)"}},{"type":"Feature","geometry":{"type":"Polygon","coordinates":[[[-62.964235,-40.836967],[-62.964442,-40.837117],[-62.963582,-40.837781],[-62.96338,-40.837622],[-62.964235,-40.836967]]]},"properties":{"LV042":"-62,964235, -40,836967","fill":"rgba(255, 1, 1, 1)"}},{"type":"Feature","geometry":{"type":"Polygon","coordinates":[[[-62.964634,-40.837265],[-62.963755,-40.837907],[-62.963578,-40.83779],[-62.964448,-40.83712],[-62.964634,-40.837265]]]},"properties":{"LV041":"-62,964448, -40,83712","fill":"rgba(248, 0, 0, 1)"}},{"type":"Feature","geometry":{"type":"Polygon","coordinates":[[[-62.964635,-40.837267],[-62.965014,-40.837556],[-62.964195,-40.838218],[-62.963767,-40.837908],[-62.964635,-40.837267]]]},"properties":{"LV040":"-62,964635, -40,837267","fill":"rgba(255, 1, 1, 1)"}},{"type":"Feature","geometry":{"type":"Polygon","coordinates":[[[-62.963757,-40.837917],[-62.964195,-40.838225],[-62.963365,-40.838874],[-62.962943,-40.838551],[-62.963757,-40.837917]]]},"properties":{"LV039":"-62,963757, -40,837917","fill":"rgba(250, 0, 0, 1)"}},{"type":"Feature","geometry":{"type":"Polygon","coordinates":[[[-62.964203,-40.838234],[-62.964639,-40.838568],[-62.963827,-40.839209],[-62.963361,-40.838879],[-62.964203,-40.838234]]]},"properties":{"LV038":"-62,964203, -40,838234","fill":"rgba(255, 0, 0, 1)"}},{"type":"Feature","geometry":{"type":"Polygon","coordinates":[[[-62.96462,-40.837909],[-62.965069,-40.838238],[-62.96465,-40.838562],[-62.964216,-40.838233],[-62.96462,-40.837909]]]},"properties":{"LV037":"-62,96462, -40,837909","fill":"rgba(255, 0, 0, 1)"}},{"type":"Feature","geometry":{"type":"Polygon","coordinates":[[[-62.965025,-40.837565],[-62.96549,-40.837912],[-62.965077,-40.838239],[-62.964625,-40.837894],[-62.965025,-40.837565]]]},"properties":{"LV036":"-62,965025, -40,837565","fill":"rgba(253, 0, 0, 1)"}},{"type":"Feature","geometry":{"type":"Polygon","coordinates":[[[-62.965655,-40.83802],[-62.966724,-40.838854],[-62.965906,-40.839475],[-62.964818,-40.838658],[-62.965655,-40.83802]]]},"properties":{"LV035":"-62,965655, -40,83802","fill":"rgba(255, 0, 0, 1)"}},{"type":"Feature","geometry":{"type":"Polygon","coordinates":[[[-62.964803,-40.838661],[-62.965903,-40.8395],[-62.965094,-40.840164],[-62.963905,-40.839342],[-62.964803,-40.838661]]]},"properties":{"LV031":"-62,964803, -40,838661","fill":"rgba(248, 0, 0, 1)"}},{"type":"Feature","geometry":{"type":"Polygon","coordinates":[[[-62.966729,-40.838859],[-62.967209,-40.839193],[-62.966397,-40.839826],[-62.965927,-40.839493],[-62.966729,-40.838859]]]},"properties":{"LV034":"-62,966729, -40,838859","fill":"rgba(244, 0, 0, 1)"}},{"type":"Feature","geometry":{"type":"Polygon","coordinates":[[[-62.965923,-40.839499],[-62.966391,-40.839822],[-62.965496,-40.840493],[-62.965105,-40.840176],[-62.965923,-40.839499]]]},"properties":{"LV032":"-62,965923, -40,839499","fill":"rgba(251, 0, 0, 1)"}},{"type":"Feature","geometry":{"type":"Polygon","coordinates":[[[-62.967642,-40.839532],[-62.965903,-40.840809],[-62.965502,-40.840506],[-62.967213,-40.839203],[-62.967642,-40.839532]]]},"properties":{"LV033":"-62,967213, -40,839203","fill":"rgba(248, 0, 0, 1)"}},{"type":"Feature","geometry":{"type":"Polygon","coordinates":[[[-62.966752,-40.837107],[-62.967931,-40.83799],[-62.966955,-40.838727],[-62.965751,-40.837879],[-62.966752,-40.837107]]]},"properties":{"LV020":"-62,966751531696644, -40,837106714769014","fill":"rgba(255, 0, 0, 1)"}},{"type":"Feature","geometry":{"type":"Polygon","coordinates":[[[-62.967933,-40.838],[-62.968715,-40.838654],[-62.967847,-40.839382],[-62.966967,-40.838733],[-62.967933,-40.838]]]},"properties":{"LV021":"-62,967933, -40,838","fill":"rgba(255, 0, 0, 1)"}},{"type":"Feature","geometry":{"type":"Polygon","coordinates":[[[-62.969047,-40.838723],[-62.969798,-40.83934],[-62.969151,-40.8398],[-62.9684,-40.839242],[-62.969047,-40.838723]]]},"properties":{"LV022":"-62,9690467, -40,8387235","fill":"rgba(255, 0, 0, 1)"}},{"type":"Feature","geometry":{"type":"Polygon","coordinates":[[[-62.968388,-40.839251],[-62.969154,-40.839812],[-62.96875,-40.840106],[-62.967997,-40.839564],[-62.968388,-40.839251]]]},"properties":{"LV023":"-62,968388, -40,839251","fill":"rgba(255, 0, 0, 1)"}},{"type":"Feature","geometry":{"type":"Polygon","coordinates":[[[-62.967987,-40.839566],[-62.968753,-40.840118],[-62.968452,-40.840348],[-62.967695,-40.839793],[-62.967987,-40.839566]]]},"properties":{"LV024":"-62,967987, -40,839566","fill":"rgba(255, 0, 0, 1)"}},{"type":"Feature","geometry":{"type":"Polygon","coordinates":[[[-62.967688,-40.839796],[-62.968441,-40.84036],[-62.968098,-40.840623],[-62.967347,-40.840051],[-62.967688,-40.839796]]]},"properties":{"LV025":"-62,96768846661854, -40,83979622599094","fill":"rgba(246, 0, 0, 1)"}},{"type":"Feature","geometry":{"type":"Polygon","coordinates":[[[-62.967329,-40.840056],[-62.968091,-40.840629],[-62.967406,-40.841142],[-62.96664,-40.840556],[-62.967329,-40.840056]]]},"properties":{"LV026":"-62,967329392370985, -40,840055592192094","fill":"rgba(255, 0, 0, 1)"}},{"type":"Feature","geometry":{"type":"Polygon","coordinates":[[[-62.966635,-40.840572],[-62.967398,-40.841146],[-62.966603,-40.841774],[-62.965805,-40.841186],[-62.966635,-40.840572]]]},"properties":{"LV027":"-62,96663475066788, -40,84057206538426","fill":"rgba(255, 0, 0, 1)"}},{"type":"Feature","geometry":{"type":"Polygon","coordinates":[[[-62.965799,-40.841193],[-62.966594,-40.841779],[-62.965974,-40.84225],[-62.965184,-40.841682],[-62.965799,-40.841193]]]},"properties":{"LV028":"-62,965799, -40,841193","fill":"rgba(255, 0, 0, 1)"}},{"type":"Feature","geometry":{"type":"Polygon","coordinates":[[[-62.964871,-40.840307],[-62.965752,-40.840935],[-62.965007,-40.841531],[-62.964106,-40.840868],[-62.964871,-40.840307]]]},"properties":{"LV029":"-62,9648711, -40,8403071","fill":"rgba(253, 0, 0, 1)"}},{"type":"Feature","geometry":{"type":"Polygon","coordinates":[[[-62.963792,-40.839467],[-62.964856,-40.840294],[-62.964098,-40.840857],[-62.963057,-40.840063],[-62.963792,-40.839467]]]},"properties":{"LV030":"-62,963792, -40,839467","fill":"rgba(253, 0, 0, 1)"}},{"type":"Feature","geometry":{"type":"Polygon","coordinates":[[[-62.96068,-40.837769],[-62.961057,-40.838061],[-62.960714,-40.838323],[-62.960353,-40.838044],[-62.96068,-40.837769]]]},"properties":{"LV054":"-62,96068, -40,837769","fill":"rgba(255, 0, 0, 1)"}},{"type":"Feature","geometry":{"type":"Polygon","coordinates":[[[-62.961464,-40.837765],[-62.961463,-40.837763],[-62.961124,-40.838015],[-62.961092,-40.838038],[-62.961062,-40.838055],[-62.96068,-40.83777],[-62.961105,-40.837477],[-62.961464,-40.837765]]]},"properties":{"LV053":"-62,961105, -40,837477","fill":"rgba(255, 0, 0, 1)"}},{"type":"Feature","geometry":{"type":"Polygon","coordinates":[[[-62.963583,-40.83933],[-62.962841,-40.839904],[-62.961893,-40.839227],[-62.962653,-40.838624],[-62.963583,-40.83933]]]},"properties":{"LV058":"-62,962653, -40,838624","fill":"rgba(255, 1, 1, 1)"}},{"type":"Feature","properties":{"LN022":"-62,9651788, -40,8416857","superficie_m2":7292.39,"fill":"#11FD00"},"geometry":{"type":"Polygon","coordinates":[[[-62.965179,-40.841686],[-62.965964,-40.842257],[-62.965248,-40.842802],[-62.964475,-40.842229],[-62.965179,-40.841686]]]}},{"type":"Feature","properties":{"LN023":"-62,9644666, -40,842235","superficie_m2":7255.56,"fill":"#11FD00"},"geometry":{"type":"Polygon","coordinates":[[[-62.964467,-40.842235],[-62.965241,-40.842807],[-62.964517,-40.843359],[-62.963753,-40.842784],[-62.964467,-40.842235]]]}},{"type":"Feature","properties":{"LN020":"-62,964272, -40,840994","superficie_m2":5002.67,"fill":"#11FD00"},"geometry":{"type":"Polygon","coordinates":[[[-62.964272,-40.840994],[-62.965,-40.841535],[-62.964357,-40.842031],[-62.96362,-40.841494],[-62.964272,-40.840994]]]}},{"type":"Feature","properties":{"LN019":"-62,9636157, -40,8414955","superficie_m2":5000.34,"fill":"#11FD00"},"geometry":{"type":"Polygon","coordinates":[[[-62.963616,-40.841495],[-62.964349,-40.842037],[-62.963684,-40.842549],[-62.962948,-40.842008],[-62.963616,-40.841495]]]}},{"type":"Feature","properties":{"LN017":"-62,9634891, -40,8403927","superficie_m2":5974.99,"LN018":"-62,9638976, -40,8407095","fill":"#11FD00"},"geometry":{"type":"Polygon","coordinates":[[[-62.963898,-40.840709],[-62.964258,-40.840988],[-62.962934,-40.841998],[-62.962565,-40.841724],[-62.963898,-40.840709]]]}},{"type":"Feature","properties":{"LN017":"-62,9634891, -40,8403927","superficie_m2":5974.99,"fill":"#11FD00"},"geometry":{"type":"Polygon","coordinates":[[[-62.963489,-40.840393],[-62.963897,-40.840702],[-62.962563,-40.841722],[-62.96215,-40.841415],[-62.963489,-40.840393]]]}},{"type":"Feature","properties":{"LN015":"-62,9630447, -40,8400721","superficie_m2":5002.93,"fill":"#11FD00"},"geometry":{"type":"Polygon","coordinates":[[[-62.963045,-40.840072],[-62.963482,-40.840393],[-62.962789,-40.840914],[-62.962361,-40.840597],[-62.963045,-40.840072]]]}},{"type":"Feature","properties":{"LN016":"-62,9623553, -40,8406059","superficie_m2":5011.01,"fill":"#11FD00"},"geometry":{"type":"Polygon","coordinates":[[[-62.962355,-40.840606],[-62.962781,-40.840921],[-62.962138,-40.841408],[-62.961707,-40.841102],[-62.962355,-40.840606]]]}},{"type":"Feature","properties":{"LN005":"-62,9606796, -40,8383285","superficie_m2":5151.15,"lote_fiscal":true,"fill":"rgba(234, 255, 0, 1)"},"geometry":{"type":"Polygon","coordinates":[[[-62.9607,-40.838317],[-62.961031,-40.838581],[-62.959713,-40.839615],[-62.959353,-40.839348],[-62.9607,-40.838317]]]}},{"type":"Feature","properties":{"LN001":"-62,96035248658697, -40,83804613530747","superficie_m2":1355.24,"fill":"#11FD00"},"geometry":{"type":"Polygon","coordinates":[[[-62.960352,-40.838046],[-62.9607,-40.838304],[-62.960386,-40.838546],[-62.960039,-40.838289],[-62.960352,-40.838046]]]}},{"type":"Feature","properties":{"LN002":"-62,96003269759622, -40,838293195716304","superficie_m2":1346.54,"fill":"#11FD00"},"geometry":{"type":"Polygon","coordinates":[[[-62.960033,-40.838293],[-62.960383,-40.838553],[-62.960069,-40.838795],[-62.959719,-40.838536],[-62.960033,-40.838293]]]}},{"type":"Feature","properties":{"LN003":"-62,95970697881785, -40,83854030218614","superficie_m2":1337.61,"fill":"#11FD00"},"geometry":{"type":"Polygon","coordinates":[[[-62.959707,-40.83854],[-62.960063,-40.838804],[-62.959735,-40.839058],[-62.959378,-40.838794],[-62.959707,-40.83854]]]}},{"type":"Feature","properties":{"LN004":"-62,95937258270595, -40,83880317988708","superficie_m2":1339.86,"fill":"rgba(17, 253, 0, 1)"},"geometry":{"type":"Polygon","coordinates":[[[-62.959373,-40.838803],[-62.959714,-40.839056],[-62.959344,-40.839342],[-62.959003,-40.839089],[-62.959373,-40.838803]]]}},{"type":"Feature","properties":{"LN011":"-62,962317, -40,8395458","superficie_m2":2495.07,"fill":"#11FD00"},"geometry":{"type":"Polygon","coordinates":[[[-62.962317,-40.839546],[-62.96282,-40.839914],[-62.962366,-40.840266],[-62.961859,-40.839895],[-62.962317,-40.839546]]]}},{"type":"Feature","properties":{"LN010":"-62,9618534, -40,8398995","superficie_m2":2507.11,"fill":"#11FD00"},"geometry":{"type":"Polygon","coordinates":[[[-62.961853,-40.839899],[-62.962357,-40.840272],[-62.961914,-40.840615],[-62.961404,-40.840246],[-62.961853,-40.839899]]]}},{"type":"Feature","properties":{"LN009":"-62,9613928, -40,8402553","superficie_m2":2493.75,"fill":"#11FD00"},"geometry":{"type":"Polygon","coordinates":[[[-62.961393,-40.840255],[-62.961899,-40.840621],[-62.961494,-40.840943],[-62.960991,-40.84057],[-62.961393,-40.840255]]]}},{"type":"Feature","properties":{"LN012":"-62,96188279517554, -40,839237454244326","superficie_m2":2575.58,"fill":"#11FD00"},"geometry":{"type":"Polygon","coordinates":[[[-62.961883,-40.839237],[-62.962302,-40.839548],[-62.961651,-40.840051],[-62.961231,-40.839741],[-62.961883,-40.839237]]]}},{"type":"Feature","properties":{"LN008":"-62,96122187019965, -40,83975305055373","superficie_m2":2575.58,"fill":"#11FD00"},"geometry":{"type":"Polygon","coordinates":[[[-62.961222,-40.839753],[-62.961635,-40.840059],[-62.960987,-40.84056],[-62.960573,-40.840254],[-62.961222,-40.839753]]]}},{"type":"Feature","properties":{"LN013":"-62,9615024, -40,8389493","superficie_m2":2575.58,"fill":"#11FD00"},"geometry":{"type":"Polygon","coordinates":[[[-62.961502,-40.838949],[-62.961862,-40.839238],[-62.96122,-40.839734],[-62.960848,-40.839455],[-62.961502,-40.838949]]]}},{"type":"Feature","properties":{"LN007":"-62,96083050243574, -40,83946388739957","superficie_m2":2575.58,"fill":"#11FD00"},"geometry":{"type":"Polygon","coordinates":[[[-62.960831,-40.839464],[-62.961217,-40.83975],[-62.960569,-40.840251],[-62.960182,-40.839965],[-62.960831,-40.839464]]]}},{"type":"Feature","properties":{"LN014":"-62,96102599779543, -40,838591924354496","superficie_m2":2575.58,"fill":"#11FD00"},"geometry":{"type":"Polygon","coordinates":[[[-62.961026,-40.838592],[-62.961493,-40.838938],[-62.96083,-40.83945],[-62.960363,-40.839104],[-62.961026,-40.838592]]]}},{"type":"Feature","properties":{"LN006":"-62,96036307325889, -40,83911314515015","superficie_m2":2575.58,"fill":"#11FD00"},"geometry":{"type":"Polygon","coordinates":[[[-62.960363,-40.839113],[-62.960827,-40.839457],[-62.960176,-40.83996],[-62.959712,-40.839616],[-62.960363,-40.839113]]]}},{"type":"Feature","properties":{"LN024":"-62,95868, -40,8393826","superficie_m2":1245.21,"fill":"#11FD00"},"geometry":{"type":"Polygon","coordinates":[[[-62.95868,-40.839383],[-62.958948,-40.839598],[-62.958683,-40.839801],[-62.95841,-40.839591],[-62.95868,-40.839383]]]}},{"type":"Feature","properties":{"LN025":"-62,9584091, -40,8395923","superficie_m2":1250.83,"fill":"#11FD00"},"geometry":{"type":"Polygon","coordinates":[[[-62.958409,-40.839592],[-62.95868,-40.839805],[-62.958411,-40.840016],[-62.958125,-40.839808],[-62.958409,-40.839592]]]}},{"type":"Feature","properties":{"LN026":"-62,958122, -40,839811","superficie_m2":1250.36,"fill":"#11FD00"},"geometry":{"type":"Polygon","coordinates":[[[-62.958122,-40.839811],[-62.958405,-40.84002],[-62.958143,-40.840222],[-62.957853,-40.840012],[-62.958122,-40.839811]]]}},{"type":"Feature","properties":{"LN027":"-62,9578489, -40,8400145","superficie_m2":1250.23,"fill":"#11FD00"},"geometry":{"type":"Polygon","coordinates":[[[-62.957849,-40.840014],[-62.958138,-40.840224],[-62.957888,-40.840416],[-62.957597,-40.840205],[-62.957849,-40.840014]]]}},{"type":"Feature","properties":{"LN028":"-62,957592, -40,8402082","superficie_m2":1267.09,"fill":"#11FD00"},"geometry":{"type":"Polygon","coordinates":[[[-62.957592,-40.840208],[-62.95788,-40.840419],[-62.957633,-40.840614],[-62.957334,-40.840402],[-62.957592,-40.840208]]]}},{"type":"Feature","properties":{"LN048":"-62,95894527487657, -40,83959943246128","superficie_m2":1815.0,"fill":"#11FD00"},"geometry":{"type":"Polygon","coordinates":[[[-62.958945,-40.839599],[-62.959121,-40.839726],[-62.958438,-40.840273],[-62.958261,-40.840146],[-62.958945,-40.839599]]]}},{"type":"Feature","properties":{"LN029":"-62,95824571064031, -40,840146818940255","superficie_m2":1815.0,"fill":"#11FD00"},"geometry":{"type":"Polygon","coordinates":[[[-62.958246,-40.840147],[-62.958428,-40.840277],[-62.957769,-40.840804],[-62.957587,-40.840674],[-62.958246,-40.840147]]]}},{"type":"Feature","properties":{"LN047":"-62,95912532307588, -40,83972243835555","superficie_m2":1815.0,"fill":"#11FD00"},"geometry":{"type":"Polygon","coordinates":[[[-62.959125,-40.839722],[-62.959302,-40.839849],[-62.95861,-40.840402],[-62.958434,-40.840276],[-62.959125,-40.839722]]]}},{"type":"Feature","properties":{"LN030":"-62,958419902537116, -40,84027143945029","superficie_m2":1815.0,"fill":"#11FD00"},"geometry":{"type":"Polygon","coordinates":[[[-62.95842,-40.840271],[-62.95861,-40.840408],[-62.957953,-40.840933],[-62.957763,-40.840797],[-62.95842,-40.840271]]]}},{"type":"Feature","properties":{"LN046":"-62,95929737940628, -40,839842629133585","superficie_m2":1815.0,"fill":"#11FD00"},"geometry":{"type":"Polygon","coordinates":[[[-62.959297,-40.839843],[-62.95949,-40.83998],[-62.958795,-40.840537],[-62.958602,-40.840399],[-62.959297,-40.839843]]]}},{"type":"Feature","properties":{"LN031":"-62,9585944, -40,8403988","superficie_m2":1815.0,"fill":"#11FD00"},"geometry":{"type":"Polygon","coordinates":[[[-62.958594,-40.840399],[-62.958793,-40.840544],[-62.958138,-40.841068],[-62.957939,-40.840926],[-62.958594,-40.840399]]]}},{"type":"Feature","properties":{"LN045":"-62,95948585652788, -40,83997570134402","superficie_m2":1815.0,"fill":"#11FD00"},"geometry":{"type":"Polygon","coordinates":[[[-62.959486,-40.839976],[-62.959684,-40.840118],[-62.958985,-40.840677],[-62.958787,-40.840535],[-62.959486,-40.839976]]]}},{"type":"Feature","properties":{"LN032":"-62,95878268163419, -40,84053211224142","superficie_m2":1815.0,"fill":"#11FD00"},"geometry":{"type":"Polygon","coordinates":[[[-62.958783,-40.840532],[-62.958989,-40.84068],[-62.958328,-40.841209],[-62.958122,-40.841061],[-62.958783,-40.840532]]]}},{"type":"Feature","properties":{"LN044":"-62,959684236611395, -40,84011147556469","superficie_m2":1815.0,"fill":"#11FD00"},"geometry":{"type":"Polygon","coordinates":[[[-62.959684,-40.840111],[-62.95988,-40.840252],[-62.959183,-40.84081],[-62.958986,-40.84067],[-62.959684,-40.840111]]]}},{"type":"Feature","properties":{"LN033":"-62,9589868, -40,8406744","superficie_m2":1815.0,"fill":"#11FD00"},"geometry":{"type":"Polygon","coordinates":[[[-62.958987,-40.840674],[-62.959175,-40.840817],[-62.958517,-40.841343],[-62.958321,-40.841202],[-62.958987,-40.840674]]]}},{"type":"Feature","properties":{"LN043":"-62,9598834, -40,8402506","superficie_m2":1815.0,"fill":"#11FD00"},"geometry":{"type":"Polygon","coordinates":[[[-62.959883,-40.840251],[-62.960085,-40.840399],[-62.959391,-40.840953],[-62.959178,-40.840801],[-62.959883,-40.840251]]]}},{"type":"Feature","properties":{"LN034":"-62,959165538628426, -40,84079794227209","superficie_m2":1815.0,"fill":"#11FD00"},"geometry":{"type":"Polygon","coordinates":[[[-62.959166,-40.840798],[-62.959387,-40.840957],[-62.95873,-40.841483],[-62.958508,-40.841324],[-62.959166,-40.840798]]]}},{"type":"Feature","properties":{"LN042":"-62,9600864, -40,8404084","superficie_m2":1815.0,"fill":"#11FD00"},"geometry":{"type":"Polygon","coordinates":[[[-62.960086,-40.840408],[-62.960309,-40.840567],[-62.959618,-40.841121],[-62.959392,-40.84096],[-62.960086,-40.840408]]]}},{"type":"Feature","properties":{"LN035":"-62,95937478876169, -40,8409537556519","superficie_m2":1815.0,"fill":"#11FD00"},"geometry":{"type":"Polygon","coordinates":[[[-62.959375,-40.840954],[-62.959618,-40.841128],[-62.958981,-40.841638],[-62.958737,-40.841464],[-62.959375,-40.840954]]]}},{"type":"Feature","properties":{"LN038":"-62,95962690136329, -40,84112189548828","superficie_m2":1800.0,"fill":"#11FD00"},"geometry":{"type":"Polygon","coordinates":[[[-62.959627,-40.841122],[-62.960476,-40.841729],[-62.960153,-40.841987],[-62.959304,-40.84138],[-62.959627,-40.841122]]]}},{"type":"Feature","properties":{"LN039":"-62,95997381270226, -40,840844364551636","superficie_m2":1800.0,"fill":"#11FD00"},"geometry":{"type":"Polygon","coordinates":[[[-62.959631,-40.841119],[-62.959974,-40.840844],[-62.960831,-40.841458],[-62.960488,-40.841732],[-62.959631,-40.841119]]]}},{"type":"Feature","properties":{"LN041":"-62,9603124, -40,8405738","superficie_m2":1713.6,"fill":"#11FD00"},"geometry":{"type":"Polygon","coordinates":[[[-62.959981,-40.840825],[-62.960312,-40.840574],[-62.960756,-40.840883],[-62.960434,-40.841149],[-62.959981,-40.840825]]]}},{"type":"Feature","properties":{"LN040":"-62,9607672, -40,8408907","superficie_m2":1705.6,"fill":"#11FD00"},"geometry":{"type":"Polygon","coordinates":[[[-62.960438,-40.841146],[-62.960767,-40.840891],[-62.96117,-40.841183],[-62.960851,-40.841442],[-62.960438,-40.841146]]]}},{"type":"Feature","properties":{"LN036":"-62,959304193141506, -40,84138006275741","superficie_m2":1713.6,"fill":"#11FD00"},"geometry":{"type":"Polygon","coordinates":[[[-62.959304,-40.84138],[-62.959731,-40.841685],[-62.959404,-40.841947],[-62.958977,-40.841641],[-62.959304,-40.84138]]]}},{"type":"Feature","properties":{"LN037":"-62,95973929247157, -40,841691335649394","superficie_m2":1705.6,"fill":"#11FD00"},"geometry":{"type":"Polygon","coordinates":[[[-62.959739,-40.841691],[-62.960149,-40.841984],[-62.959822,-40.842246],[-62.959413,-40.841953],[-62.959739,-40.841691]]]}},{"type":"Feature","properties":{"LN061":"-62,96354833973035, -40,84294087727711","superficie_m2":2927.25,"fill":"#11FD00"},"geometry":{"type":"Polygon","coordinates":[[[-62.963548,-40.842941],[-62.964301,-40.843506],[-62.964019,-40.843715],[-62.963263,-40.843162],[-62.963548,-40.842941]]]}},{"type":"Feature","properties":{"LN062":"-62,9632607, -40,8431666","superficie_m2":2927.46,"fill":"#11FD00"},"geometry":{"type":"Polygon","coordinates":[[[-62.963261,-40.843167],[-62.964011,-40.843719],[-62.963705,-40.843967],[-62.962944,-40.84341],[-62.963261,-40.843167]]]}},{"type":"Feature","properties":{"LN063":"-62,9629379, -40,8434183","superficie_m2":2919.67,"fill":"#11FD00"},"geometry":{"type":"Polygon","coordinates":[[[-62.962938,-40.843418],[-62.963696,-40.84397],[-62.963365,-40.844229],[-62.962611,-40.84367],[-62.962938,-40.843418]]]}},{"type":"Feature","properties":{"LN064":"-62,9626048, -40,8436782","superficie_m2":2911.88,"fill":"#11FD00"},"geometry":{"type":"Polygon","coordinates":[[[-62.962605,-40.843678],[-62.963355,-40.844234],[-62.963055,-40.84448],[-62.962292,-40.843922],[-62.962605,-40.843678]]]}},{"type":"Feature","properties":{"LN065":"-62,9622904, -40,8439296","superficie_m2":2921.15,"fill":"#11FD00"},"geometry":{"type":"Polygon","coordinates":[[[-62.96229,-40.84393],[-62.963045,-40.844482],[-62.962703,-40.844748],[-62.961955,-40.844185],[-62.96229,-40.84393]]]}},{"type":"Feature","properties":{"LN060":"-62,961937, -40,8416872","superficie_m2":3339.62,"fill":"#11FD00"},"geometry":{"type":"Polygon","coordinates":[[[-62.961937,-40.841687],[-62.962435,-40.842052],[-62.961722,-40.842607],[-62.961219,-40.842247],[-62.961937,-40.841687]]]}},{"type":"Feature","properties":{"LN049":"-62,9614456, -40,8413114","superficie_m2":2496.7,"fill":"#11FD00"},"geometry":{"type":"Polygon","coordinates":[[[-62.961446,-40.841311],[-62.961931,-40.841692],[-62.961571,-40.841975],[-62.961069,-40.841615],[-62.961446,-40.841311]]]}},{"type":"Feature","properties":{"LN050":"-62,96106840459926, -40,841605822732234","superficie_m2":2504.7,"fill":"#11FD00"},"geometry":{"type":"Polygon","coordinates":[[[-62.961068,-40.841606],[-62.961565,-40.841961],[-62.961213,-40.842243],[-62.960716,-40.841887],[-62.961068,-40.841606]]]}},{"type":"Feature","properties":{"LN051":"-62,96070744064026, -40,84189523316738","superficie_m2":2504.7,"fill":"#11FD00"},"geometry":{"type":"Polygon","coordinates":[[[-62.960707,-40.841895],[-62.961202,-40.842249],[-62.96086,-40.842523],[-62.960365,-40.842169],[-62.960707,-40.841895]]]}},{"type":"Feature","properties":{"LN052":"-62,9603590085334, -40,842177511486874","superficie_m2":2504.7,"fill":"#11FD00"},"geometry":{"type":"Polygon","coordinates":[[[-62.960359,-40.842178],[-62.960854,-40.842531],[-62.960514,-40.842803],[-62.960019,-40.842449],[-62.960359,-40.842178]]]}},{"type":"Feature","properties":{"LN053":"-62,96121341606194, -40,84225052222009","superficie_m2":3339.62,"fill":"#11FD00"},"geometry":{"type":"Polygon","coordinates":[[[-62.961213,-40.842251],[-62.961717,-40.842611],[-62.961027,-40.843163],[-62.960523,-40.842803],[-62.961213,-40.842251]]]}},{"type":"Feature","properties":{"LN059":"-62,9624349, -40,8420494","superficie_m2":3339.62,"fill":"#11FD00"},"geometry":{"type":"Polygon","coordinates":[[[-62.962435,-40.842049],[-62.962933,-40.842431],[-62.962247,-40.842977],[-62.961727,-40.842604],[-62.962435,-40.842049]]]}},{"type":"Feature","properties":{"LN054":"-62,961717599562476, -40,84260458024502","superficie_m2":3339.62,"fill":"#11FD00"},"geometry":{"type":"Polygon","coordinates":[[[-62.961718,-40.842605],[-62.96224,-40.842978],[-62.961545,-40.843534],[-62.961023,-40.84316],[-62.961718,-40.842605]]]}},{"type":"Feature","properties":{"LN058":"-62,962945, -40,8424312","superficie_m2":2496.7,"fill":"#11FD00"},"geometry":{"type":"Polygon","coordinates":[[[-62.962945,-40.842431],[-62.963378,-40.842749],[-62.963059,-40.843011],[-62.962609,-40.842689],[-62.962945,-40.842431]]]}},{"type":"Feature","properties":{"LN057":"-62,962600156005664, -40,84269263791971","superficie_m2":2504.7,"fill":"#11FD00"},"geometry":{"type":"Polygon","coordinates":[[[-62.9626,-40.842693],[-62.96305,-40.843015],[-62.962695,-40.843299],[-62.962245,-40.842977],[-62.9626,-40.842693]]]}},{"type":"Feature","properties":{"LN056":"-62,962236027848874, -40,842980399109436","superficie_m2":2504.7,"fill":"#11FD00"},"geometry":{"type":"Polygon","coordinates":[[[-62.962236,-40.84298],[-62.962689,-40.843304],[-62.962327,-40.843594],[-62.961874,-40.84327],[-62.962236,-40.84298]]]}},{"type":"Feature","properties":{"LN055":"-62,9618629486331, -40,843271784573346","superficie_m2":2496.7,"fill":"#11FD00"},"geometry":{"type":"Polygon","coordinates":[[[-62.961863,-40.843272],[-62.96232,-40.843599],[-62.961994,-40.84386],[-62.961536,-40.843533],[-62.961863,-40.843272]]]}},{"type":"Feature","properties":{"LV007":"rgba(250, 0, 0, 1)","fill":"rgba(255, 1, 1, 1)"},"geometry":{"type":"Polygon","coordinates":[[[-62.964705,-40.831778],[-62.965643,-40.83253],[-62.964618,-40.833404],[-62.963578,-40.83271],[-62.964705,-40.831778]]]}},{"type":"Feature","properties":{"Fridevi":"-62,96148384667582, -40,83776375015525","fill":"rgba(248, 0, 0, 1)"},"geometry":{"type":"Polygon","coordinates":[[[-62.961484,-40.837764],[-62.961878,-40.838051],[-62.961112,-40.838641],[-62.960709,-40.838319],[-62.961484,-40.837764]]]}},{"type":"Feature","properties":{"Fridevi":"-62,9618918, -40,8380616","fill":"rgba(255, 0, 0, 1)"},"geometry":{"type":"Polygon","coordinates":[[[-62.961892,-40.838062],[-62.962301,-40.838375],[-62.961529,-40.838963],[-62.961115,-40.83865],[-62.961892,-40.838062]]]}}]}